{
  "type": "FeatureCollection",
  "features": [
    {
      "type": "Feature",
      "properties": {
        "norad_id": 66408,
        "name": "STARLINK-35679",
        "group": "last-30-days",
        "lat": 53.139055610511335,
        "lon": 28.250446399995447,
        "alt_km": 409.76831418719394,
        "timestamp": "2025-12-05T14:45:14.100330+00:00",
        "meta_object_name": "STARLINK-35679",
        "meta_object_id": "2025-257AE",
        "meta_epoch": "2025-12-04T10:30:06.854112",
        "meta_mean_motion": 15.49361629,
        "meta_eccentricity": 0.0001443,
        "meta_inclination": 53.1595,
        "meta_ra_of_asc_node": 303.4498,
        "meta_arg_of_pericenter": 80.5136,
        "meta_mean_anomaly": 279.6036,
        "meta_ephemeris_type": 0,
        "meta_classification_type": "U",
        "meta_norad_cat_id": 66408,
        "meta_element_set_no": 999,
        "meta_rev_at_epoch": 509,
        "meta_bstar": 0.0018523,
        "meta_mean_motion_dot": 0.00104147,
        "meta_mean_motion_ddot": 0,
        "tle_line1": "1 66408U 25257AE  25338.43757933  .00104147  00000+0  18523-2 0  9994",
        "tle_line2": "2 66408  53.1595 303.4498 0001443  80.5136 279.6036 15.49361629  5093"
      },
      "geometry": {
        "type": "Point",
        "coordinates": [
          28.250446399995447,
          53.139055610511335
        ]
      }
    },
    {
      "type": "Feature",
      "properties": {
        "norad_id": 66409,
        "name": "CHUTIAN-2 A",
        "group": "last-30-days",
        "lat": -15.469807933383692,
        "lon": 46.81084259288706,
        "alt_km": 738.4771789743818,
        "timestamp": "2025-12-05T14:45:14.100342+00:00",
        "meta_object_name": "CHUTIAN-2 A",
        "meta_object_id": "2025-256A",
        "meta_epoch": "2025-12-04T18:57:04.245408",
        "meta_mean_motion": 14.49919613,
        "meta_eccentricity": 0.0013392,
        "meta_inclination": 98.2767,
        "meta_ra_of_asc_node": 43.6917,
        "meta_arg_of_pericenter": 201.6703,
        "meta_mean_anomaly": 158.3926,
        "meta_ephemeris_type": 0,
        "meta_classification_type": "U",
        "meta_norad_cat_id": 66409,
        "meta_element_set_no": 999,
        "meta_rev_at_epoch": 372,
        "meta_bstar": 4.8781e-05,
        "meta_mean_motion_dot": 1.45e-06,
        "meta_mean_motion_ddot": 0,
        "tle_line1": "1 66409U 25256A   25338.78963247  .00000145  00000+0  48781-4 0  9993",
        "tle_line2": "2 66409  98.2767  43.6917 0013392 201.6703 158.3926 14.49919613  3726"
      },
      "geometry": {
        "type": "Point",
        "coordinates": [
          46.81084259288706,
          -15.469807933383692
        ]
      }
    },
    {
      "type": "Feature",
      "properties": {
        "norad_id": 66410,
        "name": "CHUTIAN-2 B",
        "group": "last-30-days",
        "lat": 52.73438813435001,
        "lon": 33.50461455072299,
        "alt_km": 725.5853026226932,
        "timestamp": "2025-12-05T14:45:14.100359+00:00",
        "meta_object_name": "CHUTIAN-2 B",
        "meta_object_id": "2025-256B",
        "meta_epoch": "2025-12-04T18:38:50.985600",
        "meta_mean_motion": 14.51009595,
        "meta_eccentricity": 0.0013345,
        "meta_inclination": 98.2801,
        "meta_ra_of_asc_node": 43.7145,
        "meta_arg_of_pericenter": 205.9189,
        "meta_mean_anomaly": 154.1338,
        "meta_ephemeris_type": 0,
        "meta_classification_type": "U",
        "meta_norad_cat_id": 66410,
        "meta_element_set_no": 999,
        "meta_rev_at_epoch": 372,
        "meta_bstar": 0.0003323,
        "meta_mean_motion_dot": 1.272e-05,
        "meta_mean_motion_ddot": 0,
        "tle_line1": "1 66410U 25256B   25338.77697900  .00001272  00000+0  33230-3 0  9998",
        "tle_line2": "2 66410  98.2801  43.7145 0013345 205.9189 154.1338 14.51009595  3727"
      },
      "geometry": {
        "type": "Point",
        "coordinates": [
          33.50461455072299,
          52.73438813435001
        ]
      }
    },
    {
      "type": "Feature",
      "properties": {
        "norad_id": 66411,
        "name": "ZK-1A R/B",
        "group": "last-30-days",
        "lat": 24.929125381175155,
        "lon": -129.21763771979494,
        "alt_km": 622.8457594290821,
        "timestamp": "2025-12-05T14:45:14.100369+00:00",
        "meta_object_name": "ZK-1A R/B",
        "meta_object_id": "2025-256C",
        "meta_epoch": "2025-12-04T15:39:23.822784",
        "meta_mean_motion": 15.0167971,
        "meta_eccentricity": 0.0229312,
        "meta_inclination": 98.3247,
        "meta_ra_of_asc_node": 45.8472,
        "meta_arg_of_pericenter": 271.9995,
        "meta_mean_anomaly": 85.4983,
        "meta_ephemeris_type": 0,
        "meta_classification_type": "U",
        "meta_norad_cat_id": 66411,
        "meta_element_set_no": 999,
        "meta_rev_at_epoch": 383,
        "meta_bstar": 0.0010702,
        "meta_mean_motion_dot": 0.00024635,
        "meta_mean_motion_ddot": 0,
        "tle_line1": "1 66411U 25256C   25338.65235906  .00024635  00000+0  10702-2 0  9996",
        "tle_line2": "2 66411  98.3247  45.8472 0229312 271.9995  85.4983 15.01679710  3832"
      },
      "geometry": {
        "type": "Point",
        "coordinates": [
          -129.21763771979494,
          24.929125381175155
        ]
      }
    },
    {
      "type": "Feature",
      "properties": {
        "norad_id": 66412,
        "name": "HULIANWANG DIGUI 13A",
        "group": "last-30-days",
        "lat": -12.29767306661385,
        "lon": -78.58210904376458,
        "alt_km": 805.620390418092,
        "timestamp": "2025-12-05T14:45:14.100380+00:00",
        "meta_object_name": "HULIANWANG DIGUI 13A",
        "meta_object_id": "2025-258A",
        "meta_epoch": "2025-12-04T15:14:28.986144",
        "meta_mean_motion": 14.23493388,
        "meta_eccentricity": 0.00140766,
        "meta_inclination": 50.0043,
        "meta_ra_of_asc_node": 296.086,
        "meta_arg_of_pericenter": 329.1649,
        "meta_mean_anomaly": 30.8436,
        "meta_ephemeris_type": 0,
        "meta_classification_type": "U",
        "meta_norad_cat_id": 66412,
        "meta_element_set_no": 999,
        "meta_rev_at_epoch": 350,
        "meta_bstar": 0.00012213647,
        "meta_mean_motion_dot": 1.2e-06,
        "meta_mean_motion_ddot": 0,
        "tle_line1": "1 66412U 25258A   25338.63505771  .00000120  00000+0  12214-3 0  9991",
        "tle_line2": "2 66412  50.0043 296.0860 0014076 329.1649  30.8436 14.23493388  3503"
      },
      "geometry": {
        "type": "Point",
        "coordinates": [
          -78.58210904376458,
          -12.29767306661385
        ]
      }
    },
    {
      "type": "Feature",
      "properties": {
        "norad_id": 66413,
        "name": "HULIANWANG DIGUI 13B",
        "group": "last-30-days",
        "lat": -39.17926491155224,
        "lon": -111.15314273916573,
        "alt_km": 809.1831361460045,
        "timestamp": "2025-12-05T14:45:14.100390+00:00",
        "meta_object_name": "HULIANWANG DIGUI 13B",
        "meta_object_id": "2025-258B",
        "meta_epoch": "2025-12-04T15:25:31.725984",
        "meta_mean_motion": 14.23484219,
        "meta_eccentricity": 0.00134086,
        "meta_inclination": 50.0006,
        "meta_ra_of_asc_node": 296.1162,
        "meta_arg_of_pericenter": 330.0056,
        "meta_mean_anomaly": 30.0087,
        "meta_ephemeris_type": 0,
        "meta_classification_type": "U",
        "meta_norad_cat_id": 66413,
        "meta_element_set_no": 999,
        "meta_rev_at_epoch": 350,
        "meta_bstar": 0.00014276602,
        "meta_mean_motion_dot": 1.68e-06,
        "meta_mean_motion_ddot": 0,
        "tle_line1": "1 66413U 25258B   25338.64272831  .00000168  00000+0  14277-3 0  9994",
        "tle_line2": "2 66413  50.0006 296.1162 0013408 330.0056  30.0087 14.23484219  3507"
      },
      "geometry": {
        "type": "Point",
        "coordinates": [
          -111.15314273916573,
          -39.17926491155224
        ]
      }
    },
    {
      "type": "Feature",
      "properties": {
        "norad_id": 66414,
        "name": "HULIANWANG DIGUI 13C",
        "group": "last-30-days",
        "lat": -28.93297282227469,
        "lon": -95.6381009907025,
        "alt_km": 807.3797814111385,
        "timestamp": "2025-12-05T14:45:14.100401+00:00",
        "meta_object_name": "HULIANWANG DIGUI 13C",
        "meta_object_id": "2025-258C",
        "meta_epoch": "2025-12-04T13:39:51.800256",
        "meta_mean_motion": 14.23510047,
        "meta_eccentricity": 0.00135156,
        "meta_inclination": 50.0048,
        "meta_ra_of_asc_node": 296.4108,
        "meta_arg_of_pericenter": 327.7433,
        "meta_mean_anomaly": 32.2652,
        "meta_ephemeris_type": 0,
        "meta_classification_type": "U",
        "meta_norad_cat_id": 66414,
        "meta_element_set_no": 999,
        "meta_rev_at_epoch": 349,
        "meta_bstar": 0.00015585617,
        "meta_mean_motion_dot": 1.98e-06,
        "meta_mean_motion_ddot": 0,
        "tle_line1": "1 66414U 25258C   25338.56934954  .00000198  00000+0  15586-3 0  9994",
        "tle_line2": "2 66414  50.0048 296.4108 0013515 327.7433  32.2652 14.23510047  3497"
      },
      "geometry": {
        "type": "Point",
        "coordinates": [
          -95.6381009907025,
          -28.93297282227469
        ]
      }
    }
  ]
}